TAF KFAT 080920Z 0810/0822 00002G03KT 3SM OVC015

TAF KSCK 080920Z 0810/0822 00002G03KT 3SM OVC015

TAF KMOD 080920Z 0810/0822 00002G03KT 3SM OVC015

TAF KMER 080920Z 0810/0822 00002G03KT 3SM OVC015

TAF KPRB 080920Z 0810/0822 00002G03KT 6SM SKC