{
  "targetTimestamp": "2026-02-08T10:00:00Z",
  "source": "wx-engine -- truth-derived synthetic CVA",
  "count": 5,
  "_source_note": "Stations from per-station METARs; polygons lowered from truth.hazardZones.",
  "observations": [
    {
      "station": {
        "icao": "KFAT",
        "lat": 36.78,
        "lon": -119.72
      },
      "raw": "KFAT 081053Z 00002KT 1/2SM FG OVC003 04/04 A3010"
    },
    {
      "station": {
        "icao": "KSCK",
        "lat": 37.89,
        "lon": -121.24
      },
      "raw": "KSCK 081053Z 00002KT 1/2SM FG OVC003 04/04 A3010"
    },
    {
      "station": {
        "icao": "KMOD",
        "lat": 37.63,
        "lon": -120.95
      },
      "raw": "KMOD 081053Z 00002KT 1/2SM FG OVC003 04/04 A3011"
    },
    {
      "station": {
        "icao": "KMER",
        "lat": 37.29,
        "lon": -120.51
      },
      "raw": "KMER 081053Z 00002KT 1/2SM FG OVC003 04/04 A3011"
    },
    {
      "station": {
        "icao": "KPRB",
        "lat": 35.67,
        "lon": -120.63
      },
      "raw": "KPRB 081053Z 00002KT 10SM SKC 04/04 A3010"
    }
  ],
  "polygons": [
    {
      "id": "HZ-valley-floor-lifr-cva",
      "category": "LIFR",
      "label": "LIFR",
      "labelLonLat": [
        -120.7,
        37.3
      ],
      "rings": [
        [
          [
            -121.5,
            36.7
          ],
          [
            -119.5,
            36.7
          ],
          [
            -119.5,
            38.2
          ],
          [
            -121.5,
            38.2
          ],
          [
            -121.5,
            36.7
          ]
        ]
      ]
    },
    {
      "id": "HZ-coast-range-obscuration-cva",
      "category": "IFR",
      "label": "IFR",
      "labelLonLat": [
        -120.82000000000001,
        36
      ],
      "rings": [
        [
          [
            -120.9,
            35.4
          ],
          [
            -120.7,
            35.4
          ],
          [
            -120.7,
            36.9
          ],
          [
            -120.9,
            36.9
          ],
          [
            -120.9,
            35.4
          ]
        ]
      ]
    }
  ]
}