TAF KSTL 191820Z 1919/2007 20014KT 5SM VCSH BKN045 FM192000 32020G30KT 5SM VCSH OVC025

TAF KCPS 191820Z 1919/2007 20014KT 5SM VCSH BKN045 FM192000 32020G30KT 5SM VCSH OVC025

TAF KSPI 191820Z 1919/2007 32020G30KT 3SM VCSH OVC015

TAF KMLI 191820Z 1919/2007 32020G30KT 3SM OVC015

TAF KORD 191820Z 1919/2007 20014KT 6SM BKN045 FM192100 32020G30KT 6SM OVC025