{
  "targetTimestamp": "2026-03-19T19:00:00Z",
  "source": "wx-engine -- truth-derived synthetic METARs",
  "count": 5,
  "observations": [
    {
      "station": {
        "icao": "KSTL",
        "lat": 38.75,
        "lon": -90.37
      },
      "raw": "KSTL 191953Z 20014KT 5SM -RA BKN045 OVC120 17/13 A2969",
      "parsed": {
        "station": "KSTL",
        "day": 19,
        "hour": 19,
        "minute": 53,
        "wind": {
          "directionDeg": 200,
          "speedKt": 14,
          "gustKt": null,
          "variable": false,
          "calm": false
        },
        "visibilitySM": 5,
        "weather": [
          "-RA"
        ],
        "clouds": [
          {
            "cover": "BKN",
            "heightFtAgl": 4500
          },
          {
            "cover": "OVC",
            "heightFtAgl": 12000
          }
        ],
        "tempC": 17,
        "dewpointC": 13,
        "altimeterInHg": 29.69,
        "cavok": false,
        "raw": "KSTL 191953Z 20014KT 5SM -RA BKN045 OVC120 17/13 A2969",
        "warnings": []
      }
    },
    {
      "station": {
        "icao": "KCPS",
        "lat": 38.57,
        "lon": -90.16
      },
      "raw": "KCPS 191953Z 20014KT 10SM BKN045 OVC120 17/13 A2970",
      "parsed": {
        "station": "KCPS",
        "day": 19,
        "hour": 19,
        "minute": 53,
        "wind": {
          "directionDeg": 200,
          "speedKt": 14,
          "gustKt": null,
          "variable": false,
          "calm": false
        },
        "visibilitySM": 10,
        "weather": [],
        "clouds": [
          {
            "cover": "BKN",
            "heightFtAgl": 4500
          },
          {
            "cover": "OVC",
            "heightFtAgl": 12000
          }
        ],
        "tempC": 17,
        "dewpointC": 13,
        "altimeterInHg": 29.7,
        "cavok": false,
        "raw": "KCPS 191953Z 20014KT 10SM BKN045 OVC120 17/13 A2970",
        "warnings": []
      }
    },
    {
      "station": {
        "icao": "KSPI",
        "lat": 39.84,
        "lon": -89.68
      },
      "raw": "KSPI 191953Z 32020G33KT 3SM BR -RA OVC015 OVC070 04/M03 A2963",
      "parsed": {
        "station": "KSPI",
        "day": 19,
        "hour": 19,
        "minute": 53,
        "wind": {
          "directionDeg": 320,
          "speedKt": 20,
          "gustKt": 33,
          "variable": false,
          "calm": false
        },
        "visibilitySM": 3,
        "weather": [
          "BR",
          "-RA"
        ],
        "clouds": [
          {
            "cover": "OVC",
            "heightFtAgl": 1500
          },
          {
            "cover": "OVC",
            "heightFtAgl": 7000
          }
        ],
        "tempC": 4,
        "dewpointC": -3,
        "altimeterInHg": 29.63,
        "cavok": false,
        "raw": "KSPI 191953Z 32020G33KT 3SM BR -RA OVC015 OVC070 04/M03 A2963",
        "warnings": []
      }
    },
    {
      "station": {
        "icao": "KMLI",
        "lat": 41.45,
        "lon": -90.51
      },
      "raw": "KMLI 191953Z 32020G32KT 3SM BR OVC015 OVC070 04/M03 A2956",
      "parsed": {
        "station": "KMLI",
        "day": 19,
        "hour": 19,
        "minute": 53,
        "wind": {
          "directionDeg": 320,
          "speedKt": 20,
          "gustKt": 32,
          "variable": false,
          "calm": false
        },
        "visibilitySM": 3,
        "weather": [
          "BR"
        ],
        "clouds": [
          {
            "cover": "OVC",
            "heightFtAgl": 1500
          },
          {
            "cover": "OVC",
            "heightFtAgl": 7000
          }
        ],
        "tempC": 4,
        "dewpointC": -3,
        "altimeterInHg": 29.56,
        "cavok": false,
        "raw": "KMLI 191953Z 32020G32KT 3SM BR OVC015 OVC070 04/M03 A2956",
        "warnings": []
      }
    },
    {
      "station": {
        "icao": "KORD",
        "lat": 41.98,
        "lon": -87.91
      },
      "raw": "KORD 191953Z 20014KT 10SM BKN045 OVC120 17/13 A2956",
      "parsed": {
        "station": "KORD",
        "day": 19,
        "hour": 19,
        "minute": 53,
        "wind": {
          "directionDeg": 200,
          "speedKt": 14,
          "gustKt": null,
          "variable": false,
          "calm": false
        },
        "visibilitySM": 10,
        "weather": [],
        "clouds": [
          {
            "cover": "BKN",
            "heightFtAgl": 4500
          },
          {
            "cover": "OVC",
            "heightFtAgl": 12000
          }
        ],
        "tempC": 17,
        "dewpointC": 13,
        "altimeterInHg": 29.56,
        "cavok": false,
        "raw": "KORD 191953Z 20014KT 10SM BKN045 OVC120 17/13 A2956",
        "warnings": []
      }
    }
  ]
}