{
  "stationIcao": "KIAH",
  "issuedAt": "2026-07-15T20:20:00.000Z",
  "validFrom": "2026-07-15T21:00:00.000Z",
  "validTo": "2026-07-16T09:00:00.000Z",
  "source": "wx-engine -- truth-derived synthetic TAF",
  "raw": "TAF KIAH 152020Z 1521/1609 13010KT 3SM OVC015 PROB30 1521/1605 4SM -TSRA BKN045CB"
}