{
  "stationIcao": "KSPI",
  "issuedAt": "2026-03-19T18:20:00.000Z",
  "validFrom": "2026-03-19T19:00:00.000Z",
  "validTo": "2026-03-20T07:00:00.000Z",
  "source": "wx-engine -- truth-derived synthetic TAF",
  "raw": "TAF KSPI 191820Z 1919/2007 32020G30KT 3SM VCSH OVC015"
}