TAF KCLE 221420Z 2215/2303 32020G30KT 3SM OVC015

TAF KORD 221420Z 2215/2303 32020G30KT 6SM BKN035

TAF KDTW 221420Z 2215/2303 32020G30KT 6SM BKN035

TAF KGRR 221420Z 2215/2303 32020G30KT 6SM BKN035

TAF KCAK 221420Z 2215/2303 32020G30KT 3SM OVC015