KDDC 141253Z 32020G29KT 10SM BKN030 OVC080 05/M03 A2961
KICT 141253Z 19013KT 10SM SCT050 OVC140 16/12 A2966
KFOE 141253Z 19013KT 10SM SCT050 OVC140 16/12 A2967