TAF KDDC 141120Z 1412/1420 32020G30KT 6SM BKN030

TAF KICT 141120Z 1412/1420 19013KT 6SM SCT050

TAF KFOE 141120Z 1412/1420 19013KT 6SM SCT050