[
  {
    "station": "KASE",
    "amended": false,
    "corrected": false,
    "issuedAt": "2026-05-12T20:20:00.000Z",
    "validFrom": "2026-05-12T21:00:00.000Z",
    "validTo": "2026-05-13T09:00:00.000Z",
    "periods": [
      {
        "kind": "INITIAL",
        "start": "2026-05-12T21:00:00.000Z",
        "end": "2026-05-13T09:00:00.000Z",
        "probability": null,
        "raw": "27025G38KT 6SM FEW060",
        "wind": {
          "directionDeg": 270,
          "speedKt": 25,
          "gustKt": 38,
          "variable": false,
          "calm": false
        },
        "visibilitySM": 6,
        "weather": [],
        "clouds": [
          {
            "cover": "FEW",
            "heightFtAgl": 6000
          }
        ],
        "cavok": false
      }
    ],
    "raw": "TAF KASE 122020Z 1221/1309 27025G38KT 6SM FEW060",
    "warnings": []
  },
  {
    "station": "KDEN",
    "amended": false,
    "corrected": false,
    "issuedAt": "2026-05-12T20:20:00.000Z",
    "validFrom": "2026-05-12T21:00:00.000Z",
    "validTo": "2026-05-13T09:00:00.000Z",
    "periods": [
      {
        "kind": "INITIAL",
        "start": "2026-05-12T21:00:00.000Z",
        "end": "2026-05-13T09:00:00.000Z",
        "probability": null,
        "raw": "27025G38KT 6SM FEW060",
        "wind": {
          "directionDeg": 270,
          "speedKt": 25,
          "gustKt": 38,
          "variable": false,
          "calm": false
        },
        "visibilitySM": 6,
        "weather": [],
        "clouds": [
          {
            "cover": "FEW",
            "heightFtAgl": 6000
          }
        ],
        "cavok": false
      }
    ],
    "raw": "TAF KDEN 122020Z 1221/1309 27025G38KT 6SM FEW060",
    "warnings": []
  },
  {
    "station": "KCOS",
    "amended": false,
    "corrected": false,
    "issuedAt": "2026-05-12T20:20:00.000Z",
    "validFrom": "2026-05-12T21:00:00.000Z",
    "validTo": "2026-05-13T09:00:00.000Z",
    "periods": [
      {
        "kind": "INITIAL",
        "start": "2026-05-12T21:00:00.000Z",
        "end": "2026-05-13T09:00:00.000Z",
        "probability": null,
        "raw": "27025G38KT 6SM FEW060",
        "wind": {
          "directionDeg": 270,
          "speedKt": 25,
          "gustKt": 38,
          "variable": false,
          "calm": false
        },
        "visibilitySM": 6,
        "weather": [],
        "clouds": [
          {
            "cover": "FEW",
            "heightFtAgl": 6000
          }
        ],
        "cavok": false
      }
    ],
    "raw": "TAF KCOS 122020Z 1221/1309 27025G38KT 6SM FEW060",
    "warnings": []
  },
  {
    "station": "KBJC",
    "amended": false,
    "corrected": false,
    "issuedAt": "2026-05-12T20:20:00.000Z",
    "validFrom": "2026-05-12T21:00:00.000Z",
    "validTo": "2026-05-13T09:00:00.000Z",
    "periods": [
      {
        "kind": "INITIAL",
        "start": "2026-05-12T21:00:00.000Z",
        "end": "2026-05-13T09:00:00.000Z",
        "probability": null,
        "raw": "27025G38KT 6SM FEW060",
        "wind": {
          "directionDeg": 270,
          "speedKt": 25,
          "gustKt": 38,
          "variable": false,
          "calm": false
        },
        "visibilitySM": 6,
        "weather": [],
        "clouds": [
          {
            "cover": "FEW",
            "heightFtAgl": 6000
          }
        ],
        "cavok": false
      }
    ],
    "raw": "TAF KBJC 122020Z 1221/1309 27025G38KT 6SM FEW060",
    "warnings": []
  },
  {
    "station": "KAPA",
    "amended": false,
    "corrected": false,
    "issuedAt": "2026-05-12T20:20:00.000Z",
    "validFrom": "2026-05-12T21:00:00.000Z",
    "validTo": "2026-05-13T09:00:00.000Z",
    "periods": [
      {
        "kind": "INITIAL",
        "start": "2026-05-12T21:00:00.000Z",
        "end": "2026-05-13T09:00:00.000Z",
        "probability": null,
        "raw": "27025G38KT 6SM FEW060",
        "wind": {
          "directionDeg": 270,
          "speedKt": 25,
          "gustKt": 38,
          "variable": false,
          "calm": false
        },
        "visibilitySM": 6,
        "weather": [],
        "clouds": [
          {
            "cover": "FEW",
            "heightFtAgl": 6000
          }
        ],
        "cavok": false
      }
    ],
    "raw": "TAF KAPA 122020Z 1221/1309 27025G38KT 6SM FEW060",
    "warnings": []
  }
]