TAF KMRY 181520Z 1816/1904 30008G12KT 3SM OVC015

TAF KSFO 181520Z 1816/1904 30008G12KT 3SM OVC015

TAF KOAK 181520Z 1816/1904 30008G12KT 3SM OVC015

TAF KSCK 181520Z 1816/1904 03006KT 6SM SKC FM181900 30008G12KT 6SM BKN008

TAF KSAC 181520Z 1816/1904 03006KT 6SM SKC FM181700 30008G12KT 6SM BKN008