[
  {
    "station": "KAUS",
    "day": 15,
    "hour": 21,
    "minute": 53,
    "wind": {
      "directionDeg": 130,
      "speedKt": 10,
      "gustKt": null,
      "variable": false,
      "calm": false
    },
    "visibilitySM": 10,
    "weather": [],
    "clouds": [
      {
        "cover": "SCT",
        "heightFtAgl": 4500
      },
      {
        "cover": "OVC",
        "heightFtAgl": 12000
      }
    ],
    "tempC": 35,
    "dewpointC": 24,
    "altimeterInHg": 29.94,
    "cavok": false,
    "raw": "KAUS 152153Z 13010KT 10SM SCT045 OVC120 35/24 A2994",
    "warnings": []
  },
  {
    "station": "KIAH",
    "day": 15,
    "hour": 21,
    "minute": 53,
    "wind": {
      "directionDeg": 130,
      "speedKt": 10,
      "gustKt": null,
      "variable": false,
      "calm": false
    },
    "visibilitySM": 3,
    "weather": [
      "BR",
      "+TSRA"
    ],
    "clouds": [
      {
        "cover": "OVC",
        "heightFtAgl": 2500
      },
      {
        "cover": "BKN",
        "heightFtAgl": 1500
      },
      {
        "cover": "OVC",
        "heightFtAgl": 6000
      }
    ],
    "tempC": 35,
    "dewpointC": 24,
    "altimeterInHg": 29.92,
    "cavok": false,
    "raw": "KIAH 152153Z 13010KT 3SM BR +TSRA OVC025 BKN015 OVC060 35/24 A2992",
    "warnings": []
  },
  {
    "station": "KSAT",
    "day": 15,
    "hour": 21,
    "minute": 53,
    "wind": {
      "directionDeg": 130,
      "speedKt": 10,
      "gustKt": null,
      "variable": false,
      "calm": false
    },
    "visibilitySM": 10,
    "weather": [],
    "clouds": [
      {
        "cover": "SCT",
        "heightFtAgl": 4500
      },
      {
        "cover": "OVC",
        "heightFtAgl": 12000
      }
    ],
    "tempC": 35,
    "dewpointC": 24,
    "altimeterInHg": 29.94,
    "cavok": false,
    "raw": "KSAT 152153Z 13010KT 10SM SCT045 OVC120 35/24 A2994",
    "warnings": []
  },
  {
    "station": "KCLL",
    "day": 15,
    "hour": 21,
    "minute": 53,
    "wind": {
      "directionDeg": 130,
      "speedKt": 10,
      "gustKt": null,
      "variable": false,
      "calm": false
    },
    "visibilitySM": 3,
    "weather": [
      "+TSRA"
    ],
    "clouds": [
      {
        "cover": "SCT",
        "heightFtAgl": 4500
      },
      {
        "cover": "BKN",
        "heightFtAgl": 1500
      },
      {
        "cover": "OVC",
        "heightFtAgl": 6000
      }
    ],
    "tempC": 35,
    "dewpointC": 24,
    "altimeterInHg": 29.93,
    "cavok": false,
    "raw": "KCLL 152153Z 13010KT 3SM +TSRA SCT045 BKN015 OVC060 35/24 A2993",
    "warnings": []
  },
  {
    "station": "KCRP",
    "day": 15,
    "hour": 21,
    "minute": 53,
    "wind": {
      "directionDeg": 150,
      "speedKt": 8,
      "gustKt": null,
      "variable": false,
      "calm": false
    },
    "visibilitySM": 10,
    "weather": [],
    "clouds": [
      {
        "cover": "FEW",
        "heightFtAgl": 2500
      }
    ],
    "tempC": 28,
    "dewpointC": 23,
    "altimeterInHg": 29.92,
    "cavok": false,
    "raw": "KCRP 152153Z 15008KT 10SM FEW025 28/23 A2992",
    "warnings": []
  }
]