{
  "targetTimestamp": "2026-02-12T21:00:00Z",
  "source": "wx-engine -- truth-derived synthetic METARs",
  "count": 5,
  "observations": [
    {
      "station": {
        "icao": "KASE",
        "lat": 39.22,
        "lon": -106.87
      },
      "raw": "KASE 122153Z 27025KT 10SM FEW060 OVC140 02/M12 A3003",
      "parsed": {
        "station": "KASE",
        "day": 12,
        "hour": 21,
        "minute": 53,
        "wind": {
          "directionDeg": 270,
          "speedKt": 25,
          "gustKt": null,
          "variable": false,
          "calm": false
        },
        "visibilitySM": 10,
        "weather": [],
        "clouds": [
          {
            "cover": "FEW",
            "heightFtAgl": 6000
          },
          {
            "cover": "OVC",
            "heightFtAgl": 14000
          }
        ],
        "tempC": 2,
        "dewpointC": -12,
        "altimeterInHg": 30.03,
        "cavok": false,
        "raw": "KASE 122153Z 27025KT 10SM FEW060 OVC140 02/M12 A3003",
        "warnings": []
      }
    },
    {
      "station": {
        "icao": "KDEN",
        "lat": 39.86,
        "lon": -104.67
      },
      "raw": "KDEN 122153Z 27025KT 10SM FEW060 OVC140 02/M12 A2999",
      "parsed": {
        "station": "KDEN",
        "day": 12,
        "hour": 21,
        "minute": 53,
        "wind": {
          "directionDeg": 270,
          "speedKt": 25,
          "gustKt": null,
          "variable": false,
          "calm": false
        },
        "visibilitySM": 10,
        "weather": [],
        "clouds": [
          {
            "cover": "FEW",
            "heightFtAgl": 6000
          },
          {
            "cover": "OVC",
            "heightFtAgl": 14000
          }
        ],
        "tempC": 2,
        "dewpointC": -12,
        "altimeterInHg": 29.99,
        "cavok": false,
        "raw": "KDEN 122153Z 27025KT 10SM FEW060 OVC140 02/M12 A2999",
        "warnings": []
      }
    },
    {
      "station": {
        "icao": "KCOS",
        "lat": 38.81,
        "lon": -104.7
      },
      "raw": "KCOS 122153Z 27025KT 10SM FEW060 OVC140 02/M12 A2999",
      "parsed": {
        "station": "KCOS",
        "day": 12,
        "hour": 21,
        "minute": 53,
        "wind": {
          "directionDeg": 270,
          "speedKt": 25,
          "gustKt": null,
          "variable": false,
          "calm": false
        },
        "visibilitySM": 10,
        "weather": [],
        "clouds": [
          {
            "cover": "FEW",
            "heightFtAgl": 6000
          },
          {
            "cover": "OVC",
            "heightFtAgl": 14000
          }
        ],
        "tempC": 2,
        "dewpointC": -12,
        "altimeterInHg": 29.99,
        "cavok": false,
        "raw": "KCOS 122153Z 27025KT 10SM FEW060 OVC140 02/M12 A2999",
        "warnings": []
      }
    },
    {
      "station": {
        "icao": "KBJC",
        "lat": 39.91,
        "lon": -105.12
      },
      "raw": "KBJC 122153Z 27025KT 10SM FEW060 OVC140 02/M12 A3000",
      "parsed": {
        "station": "KBJC",
        "day": 12,
        "hour": 21,
        "minute": 53,
        "wind": {
          "directionDeg": 270,
          "speedKt": 25,
          "gustKt": null,
          "variable": false,
          "calm": false
        },
        "visibilitySM": 10,
        "weather": [],
        "clouds": [
          {
            "cover": "FEW",
            "heightFtAgl": 6000
          },
          {
            "cover": "OVC",
            "heightFtAgl": 14000
          }
        ],
        "tempC": 2,
        "dewpointC": -12,
        "altimeterInHg": 30,
        "cavok": false,
        "raw": "KBJC 122153Z 27025KT 10SM FEW060 OVC140 02/M12 A3000",
        "warnings": []
      }
    },
    {
      "station": {
        "icao": "KAPA",
        "lat": 39.57,
        "lon": -104.85
      },
      "raw": "KAPA 122153Z 27025KT 10SM FEW060 OVC140 02/M12 A2999",
      "parsed": {
        "station": "KAPA",
        "day": 12,
        "hour": 21,
        "minute": 53,
        "wind": {
          "directionDeg": 270,
          "speedKt": 25,
          "gustKt": null,
          "variable": false,
          "calm": false
        },
        "visibilitySM": 10,
        "weather": [],
        "clouds": [
          {
            "cover": "FEW",
            "heightFtAgl": 6000
          },
          {
            "cover": "OVC",
            "heightFtAgl": 14000
          }
        ],
        "tempC": 2,
        "dewpointC": -12,
        "altimeterInHg": 29.99,
        "cavok": false,
        "raw": "KAPA 122153Z 27025KT 10SM FEW060 OVC140 02/M12 A2999",
        "warnings": []
      }
    }
  ]
}